{"type": "FeatureCollection", "features": [ {"type": "Feature", "properties": {"norad_id": 31151, "name": "FENGYUN 1C DEB", "group": "fengyun-1c-debris", "lat": 42.08221174474966, "lon": -25.035259009990586, "alt_km": 762.1979227617248, "timestamp": "2025-12-04T05:42:43.653557+00:00", "meta": {"OBJECT_NAME": "FENGYUN 1C DEB", "OBJECT_ID": "1999-025BHD", "EPOCH": "2025-12-02T11:24:15.667776", "MEAN_MOTION": 14.2562356, "ECCENTRICITY": 0.00569222, "INCLINATION": 99.1347, "RA_OF_ASC_NODE": 341.4833, "ARG_OF_PERICENTER": 54.3348, "MEAN_ANOMALY": 306.3111, "EPHEMERIS_TYPE": 0, "CLASSIFICATION_TYPE": "U", "NORAD_CAT_ID": 31151, "ELEMENT_SET_NO": 999, "REV_AT_EPOCH": 95828, "BSTAR": 0.0027697832, "MEAN_MOTION_DOT": 6.632e-05, "MEAN_MOTION_DDOT": 0}, "tle": {"line1": "1 31151U 99025BHD 25336.47518134  .00006632  00000+0  27698-2 0  9998", "line2": "2 31151  99.1347 341.4833 0056922  54.3348 306.3111 14.25623560958284"}}, "geometry": {"type": "Point", "coordinates": [-25.035259009990586, 42.08221174474966]}}, {"type": "Feature", "properties": {"norad_id": 31152, "name": "FENGYUN 1C DEB", "group": "fengyun-1c-debris", "lat": 0.5335345278164396, "lon": 145.11947218263157, "alt_km": 822.0813357870938, "timestamp": "2025-12-04T05:42:43.653568+00:00", "meta": {"OBJECT_NAME": "FENGYUN 1C DEB", "OBJECT_ID": "1999-025BHE", "EPOCH": "2025-12-03T11:11:56.086368", "MEAN_MOTION": 14.3583736, "ECCENTRICITY": 0.01305551, "INCLINATION": 98.4135, "RA_OF_ASC_NODE": 324.2876, "ARG_OF_PERICENTER": 60.8292, "MEAN_ANOMALY": 92.227, "EPHEMERIS_TYPE": 0, "CLASSIFICATION_TYPE": "U", "NORAD_CAT_ID": 31152, "ELEMENT_SET_NO": 999, "REV_AT_EPOCH": 97915, "BSTAR": 0.00016397247, "MEAN_MOTION_DOT": 4.78e-06, "MEAN_MOTION_DDOT": 0}, "tle": {"line1": "1 31152U 99025BHE 25337.46662137  .00000478  00000+0  16397-3 0  9999", "line2": "2 31152  98.4135 324.2876 0130555  60.8292  92.2270 14.35837360979155"}}, "geometry": {"type": "Point", "coordinates": [145.11947218263157, 0.5335345278164396]}}, {"type": "Feature", "properties": {"norad_id": 31155, "name": "FENGYUN 1C DEB", "group": "fengyun-1c-debris", "lat": -28.083904402022675, "lon": -137.72797086999554, "alt_km": 935.7612306334286, "timestamp": "2025-12-04T05:42:43.653578+00:00", "meta": {"OBJECT_NAME": "FENGYUN 1C DEB", "OBJECT_ID": "1999-025BHH", "EPOCH": "2025-11-30T22:17:26.033856", "MEAN_MOTION": 14.08251839, "ECCENTRICITY": 0.00893555, "INCLINATION": 99.0428, "RA_OF_ASC_NODE": 43.8309, "ARG_OF_PERICENTER": 36.3859, "MEAN_ANOMALY": 324.334, "EPHEMERIS_TYPE": 0, "CLASSIFICATION_TYPE": "U", "NORAD_CAT_ID": 31155, "ELEMENT_SET_NO": 999, "REV_AT_EPOCH": 95421, "BSTAR": 0.0012635764, "MEAN_MOTION_DOT": 2.195e-05, "MEAN_MOTION_DDOT": 0}, "tle": {"line1": "1 31155U 99025BHH 25334.92877354  .00002195  00000+0  12636-2 0  9998", "line2": "2 31155  99.0428  43.8309 0089355  36.3859 324.3340 14.08251839954211"}}, "geometry": {"type": "Point", "coordinates": [-137.72797086999554, -28.083904402022675]}}, {"type": "Feature", "properties": {"norad_id": 31157, "name": "FENGYUN 1C DEB", "group": "fengyun-1c-debris", "lat": 72.40666533838161, "lon": -65.98264891123712, "alt_km": 800.4387386296385, "timestamp": "2025-12-04T05:42:43.653588+00:00", "meta": {"OBJECT_NAME": "FENGYUN 1C DEB", "OBJECT_ID": "1999-025BHK", "EPOCH": "2025-11-30T18:39:07.604640", "MEAN_MOTION": 14.22530915, "ECCENTRICITY": 0.01006996, "INCLINATION": 98.4764, "RA_OF_ASC_NODE": 318.7411, "ARG_OF_PERICENTER": 1.4873, "MEAN_ANOMALY": 358.6586, "EPHEMERIS_TYPE": 0, "CLASSIFICATION_TYPE": "U", "NORAD_CAT_ID": 31157, "ELEMENT_SET_NO": 999, "REV_AT_EPOCH": 96813, "BSTAR": 0.00031330561, "MEAN_MOTION_DOT": 6.94e-06, "MEAN_MOTION_DDOT": 0}, "tle": {"line1": "1 31157U 99025BHK 25334.77717135  .00000694  00000+0  31331-3 0  9999", "line2": "2 31157  98.4764 318.7411 0100699   1.4873 358.6586 14.22530915968130"}}, "geometry": {"type": "Point", "coordinates": [-65.98264891123712, 72.40666533838161]}}, {"type": "Feature", "properties": {"norad_id": 31158, "name": "FENGYUN 1C DEB", "group": "fengyun-1c-debris", "lat": -77.67998362775688, "lon": 101.8418865530627, "alt_km": 815.8350806238968, "timestamp": "2025-12-04T05:42:43.653597+00:00", "meta": {"OBJECT_NAME": "FENGYUN 1C DEB", "OBJECT_ID": "1999-025BHL", "EPOCH": "2025-12-01T22:47:41.317728", "MEAN_MOTION": 14.33065926, "ECCENTRICITY": 0.00482848, "INCLINATION": 98.7835, "RA_OF_ASC_NODE": 54.4553, "ARG_OF_PERICENTER": 67.2099, "MEAN_ANOMALY": 293.4175, "EPHEMERIS_TYPE": 0, "CLASSIFICATION_TYPE": "U", "NORAD_CAT_ID": 31158, "ELEMENT_SET_NO": 999, "REV_AT_EPOCH": 64325, "BSTAR": 0.0019469313, "MEAN_MOTION_DOT": 5.364e-05, "MEAN_MOTION_DDOT": 0}, "tle": {"line1": "1 31158U 99025BHL 25335.94978377  .00005364  00000+0  19469-2 0  9993", "line2": "2 31158  98.7835  54.4553 0048284  67.2099 293.4175 14.33065926643255"}}, "geometry": {"type": "Point", "coordinates": [101.8418865530627, -77.67998362775688]}}, {"type": "Feature", "properties": {"norad_id": 31159, "name": "FENGYUN 1C DEB", "group": "fengyun-1c-debris", "lat": 63.02446356924279, "lon": 132.9438242488787, "alt_km": 426.0457114455194, "timestamp": "2025-12-04T05:42:43.653607+00:00", "meta": {"OBJECT_NAME": "FENGYUN 1C DEB", "OBJECT_ID": "1999-025BHM", "EPOCH": "2025-12-01T03:44:51.470592", "MEAN_MOTION": 15.36051603, "ECCENTRICITY": 0.01187409, "INCLINATION": 97.7974, "RA_OF_ASC_NODE": 294.0605, "ARG_OF_PERICENTER": 53.757, "MEAN_ANOMALY": 307.4576, "EPHEMERIS_TYPE": 0, "CLASSIFICATION_TYPE": "U", "NORAD_CAT_ID": 31159, "ELEMENT_SET_NO": 999, "REV_AT_EPOCH": 99375, "BSTAR": 0.0015029289, "MEAN_MOTION_DOT": 0.00067184, "MEAN_MOTION_DDOT": 0}, "tle": {"line1": "1 31159U 99025BHM 25335.15615128  .00067184  00000+0  15029-2 0  9995", "line2": "2 31159  97.7974 294.0605 0118740  53.7570 307.4576 15.36051603993753"}}, "geometry": {"type": "Point", "coordinates": [132.9438242488787, 63.02446356924279]}}, {"type": "Feature", "properties": {"norad_id": 31160, "name": "FENGYUN 1C DEB", "group": "fengyun-1c-debris", "lat": -30.51837613271301, "lon": 39.99609900433218, "alt_km": 874.1337820113131, "timestamp": "2025-12-04T05:42:43.653617+00:00", "meta": {"OBJECT_NAME": "FENGYUN 1C DEB", "OBJECT_ID": "1999-025BHN", "EPOCH": "2025-12-02T21:15:36.620064", "MEAN_MOTION": 13.99587015, "ECCENTRICITY": 0.00565633, "INCLINATION": 99.0872, "RA_OF_ASC_NODE": 33.2408, "ARG_OF_PERICENTER": 283.6092, "MEAN_ANOMALY": 75.8776, "EPHEMERIS_TYPE": 0, "CLASSIFICATION_TYPE": "U", "NORAD_CAT_ID": 31160, "ELEMENT_SET_NO": 999, "REV_AT_EPOCH": 69461, "BSTAR": 0.00025455659, "MEAN_MOTION_DOT": 3.32e-06, "MEAN_MOTION_DDOT": 0}, "tle": {"line1": "1 31160U 99025BHN 25336.88584051  .00000332  00000+0  25456-3 0  9996", "line2": "2 31160  99.0872  33.2408 0056563 283.6092  75.8776 13.99587015694617"}}, "geometry": {"type": "Point", "coordinates": [39.99609900433218, -30.51837613271301]}}, {"type": "Feature", "properties": {"norad_id": 31161, "name": "FENGYUN 1C DEB", "group": "fengyun-1c-debris", "lat": 76.1254318037536, "lon": -38.505046744892766, "alt_km": 833.4201880190994, "timestamp": "2025-12-04T05:42:43.653627+00:00", "meta": {"OBJECT_NAME": "FENGYUN 1C DEB", "OBJECT_ID": "1999-025BHP", "EPOCH": "2025-12-03T12:18:07.609248", "MEAN_MOTION": 14.09233129, "ECCENTRICITY": 0.00687419, "INCLINATION": 98.7496, "RA_OF_ASC_NODE": 359.3619, "ARG_OF_PERICENTER": 16.3, "MEAN_ANOMALY": 344.036, "EPHEMERIS_TYPE": 0, "CLASSIFICATION_TYPE": "U", "NORAD_CAT_ID": 31161, "ELEMENT_SET_NO": 999, "REV_AT_EPOCH": 95972, "BSTAR": 0.00045453283, "MEAN_MOTION_DOT": 7.65e-06, "MEAN_MOTION_DDOT": 0}, "tle": {"line1": "1 31161U 99025BHP 25337.51258807  .00000765  00000+0  45453-3 0  9994", "line2": "2 31161  98.7496 359.3619 0068741  16.3000 344.0360 14.09233129959725"}}, "geometry": {"type": "Point", "coordinates": [-38.505046744892766, 76.1254318037536]}}, {"type": "Feature", "properties": {"norad_id": 31165, "name": "FENGYUN 1C DEB", "group": "fengyun-1c-debris", "lat": -60.89262397079159, "lon": 53.58559028046991, "alt_km": 626.1878299331265, "timestamp": "2025-12-04T05:42:43.653637+00:00", "meta": {"OBJECT_NAME": "FENGYUN 1C DEB", "OBJECT_ID": "1999-025BHT", "EPOCH": "2025-12-03T10:28:08.385888", "MEAN_MOTION": 14.70810655, "ECCENTRICITY": 0.00692655, "INCLINATION": 98.8874, "RA_OF_ASC_NODE": 36.3892, "ARG_OF_PERICENTER": 264.0226, "MEAN_ANOMALY": 110.4183, "EPHEMERIS_TYPE": 0, "CLASSIFICATION_TYPE": "U", "NORAD_CAT_ID": 31165, "ELEMENT_SET_NO": 999, "REV_AT_EPOCH": 98618, "BSTAR": 0.0017354205, "MEAN_MOTION_DOT": 0.00010955, "MEAN_MOTION_DDOT": 0}, "tle": {"line1": "1 31165U 99025BHT 25337.43620817  .00010955  00000+0  17354-2 0  9993", "line2": "2 31165  98.8874  36.3892 0069265 264.0226 110.4183 14.70810655986180"}}, "geometry": {"type": "Point", "coordinates": [53.58559028046991, -60.89262397079159]}}, {"type": "Feature", "properties": {"norad_id": 31168, "name": "FENGYUN 1C DEB", "group": "fengyun-1c-debris", "lat": -45.48801159563012, "lon": 117.9270344223758, "alt_km": 731.5961132071507, "timestamp": "2025-12-04T05:42:43.653647+00:00", "meta": {"OBJECT_NAME": "FENGYUN 1C DEB", "OBJECT_ID": "1999-025BHW", "EPOCH": "2025-12-03T15:11:37.319712", "MEAN_MOTION": 14.67216795, "ECCENTRICITY": 0.01091597, "INCLINATION": 98.8905, "RA_OF_ASC_NODE": 108.1096, "ARG_OF_PERICENTER": 91.7474, "MEAN_ANOMALY": 269.6234, "EPHEMERIS_TYPE": 0, "CLASSIFICATION_TYPE": "U", "NORAD_CAT_ID": 31168, "ELEMENT_SET_NO": 999, "REV_AT_EPOCH": 98987, "BSTAR": 0.0011669113, "MEAN_MOTION_DOT": 7.131e-05, "MEAN_MOTION_DDOT": 0}, "tle": {"line1": "1 31168U 99025BHW 25337.63307083  .00007131  00000+0  11669-2 0  9990", "line2": "2 31168  98.8905 108.1096 0109159  91.7474 269.6234 14.67216795989873"}}, "geometry": {"type": "Point", "coordinates": [117.9270344223758, -45.48801159563012]}}]}